{
  "norad_id": 54065,
  "name": "STARLINK-5187",
  "history": [
    {
      "epoch": "2026-03-28T18:01:14.837952Z",
      "apogee_km": 540.5991719123895,
      "perigee_km": 538.9431630552563,
      "latitude_deg": -2.88261538229598e-05,
      "longitude_deg": 161.925230420377,
      "height_km": 540.7641265627303,
      "semi_major_axis_km": 6917.908167483823,
      "eccentricity": 0.00011969,
      "inclination_deg": 53.2171,
      "raan_deg": 258.4039,
      "arg_perigee_deg": 96.7311,
      "mean_anomaly_deg": 263.3817,
      "mean_motion_rev_day": 15.08830912
    }
  ]
}