{"fetched_at":"2026-03-29T16:36:15Z","count":15609,"tles":[{"name":"STARLINK-5187","line1":"1 54065U 22136Q   26087.75086618 -.00001696  00000+0 -88528-4 0  9996","line2":"2 54065  53.2171 258.4039 0001196  96.7311 263.3817 15.08830912189720","category":"Starlink"}]}